NORAD_CAT_ID,OBJECT_NAME,OBJECT_TYPE,EPOCH,MEAN_MOTION,ECCENTRICITY,INCLINATION,RA_OF_ASC_NODE,ARG_OF_PERICENTER,MEAN_ANOMALY,BSTAR,MEAN_MOTION_DOT,MEAN_MOTION_DDOT,TLE_LINE0,TLE_LINE1,TLE_LINE2,SEMIMAJOR_AXIS,PERIOD,APOGEE,PERIGEE,DECAYED
55639.0,STARLINK-5508,PAYLOAD,2023-11-02 21:46:54,14.98330729,0.0002721,70.0014,187.2422,265.0265,95.0583,-4.034e-05,-5.74e-06,0.0,0 STARLINK-5508,1 55639U 23021M   23306.90757256 -.00000574  00000-0 -40340-4 0  9994,2 55639  70.0014 187.2422 0002721 265.0265  95.0583 14.98330729 40309,6950.191,96.107,573.947,570.164,0.0
55639.0,STARLINK-5508,PAYLOAD,2023-11-03 02:35:18,14.98333921,0.0002768,70.0014,186.7371,272.188,87.8962,-3.7483e-06,-1.38e-06,0.0,0 STARLINK-5508,1 55639U 23021M   23307.10784948 -.00000138  00000-0 -37483-5 0  9996,2 55639  70.0014 186.7371 0002768 272.1880  87.8962 14.98333921 40036,6950.181,96.107,573.97,570.122,0.0
55639.0,STARLINK-5508,PAYLOAD,2023-11-03 08:59:49,14.98370313,0.0002772,70.0015,186.0632,271.9081,88.1761,-0.00072577,-8.751e-05,0.0,0 STARLINK-5508,1 55639U 23021M   23307.37488177 -.00008751  00000-0 -72577-3 0  9990,2 55639  70.0015 186.0632 0002772 271.9081  88.1761 14.98370313 40076,6950.068,96.104,573.86,570.007,0.0
55639.0,STARLINK-5508,PAYLOAD,2023-11-03 18:36:39,14.98329285,0.0002725,70.0012,185.0537,272.774,87.3107,-1.4638e-05,-2.68e-06,0.0,0 STARLINK-5508,1 55639U 23021M   23307.77545164 -.00000268  00000-0 -14638-4 0  9994,2 55639  70.0012 185.0537 0002725 272.7740  87.3107 14.98329285 40139,6950.195,96.107,573.954,570.166,0.0
55639.0,STARLINK-5508,PAYLOAD,2023-11-03 21:48:55,14.98329621,0.0002774,70.0017,184.7175,270.0515,90.0326,8.7886e-06,1.2e-07,0.0,0 STARLINK-5508,1 55639U 23021M   23307.90897055  .00000012  00000-0  87886-5 0  9999,2 55639  70.0017 184.7175 0002774 270.0515  90.0326 14.98329621 40456,6950.194,96.107,573.987,570.131,0.0
55639.0,STARLINK-5508,PAYLOAD,2023-11-04 09:01:51,14.9833675,0.0002667,70.0014,183.5388,270.1988,89.8866,-0.00026764,-3.285e-05,0.0,0 STARLINK-5508,1 55639U 23021M   23308.37629268 -.00003285  00000-0 -26764-3 0  9993,2 55639  70.0014 183.5388 0002667 270.1988  89.8866 14.98336750 40526,6950.172,96.107,573.891,570.183,0.0
55639.0,STARLINK-5508,PAYLOAD,2023-11-04 20:14:48,14.98325569,0.000266,70.0013,182.3603,267.7854,92.3,-1.6179e-06,-1.12e-06,0.0,0 STARLINK-5508,1 55639U 23021M   23308.84361397 -.00000112  00000-0 -16179-5 0  9998,2 55639  70.0013 182.3603 0002660 267.7854  92.3000 14.98325569 40298,6950.207,96.107,573.92,570.223,0.0
55639.0,STARLINK-5508,PAYLOAD,2023-11-04 21:50:56,14.98327942,0.0002669,70.0008,182.1915,263.4185,96.667,-1.1906e-06,-1.07e-06,0.0,0 STARLINK-5508,1 55639U 23021M   23308.91037216 -.00000107  00000-0 -11906-5 0  9993,2 55639  70.0008 182.1915 0002669 263.4185  96.6670 14.98327942 40607,6950.199,96.107,573.919,570.209,0.0
55639.0,STARLINK-5508,PAYLOAD,2023-11-05 09:03:52,14.98336632,0.0002778,70.0005,181.0133,275.5023,84.5819,2.7437e-05,2.34e-06,0.0,0 STARLINK-5508,1 55639U 23021M   23309.37768606  .00000234  00000-0  27437-4 0  9992,2 55639  70.0005 181.0133 0002778 275.5023  84.5819 14.98336632 40371,6950.172,96.107,573.968,570.107,0.0
55639.0,STARLINK-5508,PAYLOAD,2023-11-05 21:52:55,14.98348093,0.0003007,69.9994,179.6664,270.016,90.0654,0.00015764,1.789e-05,0.0,0 STARLINK-5508,1 55639U 23021M   23309.91175165  .00001789  00000-0  15764-3 0  9999,2 55639  69.9994 179.6664 0003007 270.0160  90.0654 14.98348093 40750,6950.137,96.106,574.092,569.912,0.0
55639.0,STARLINK-5508,PAYLOAD,2023-11-06 01:05:10,14.98353775,0.0002732,70.0003,179.3299,269.0585,91.0261,0.00021788,2.509e-05,0.0,0 STARLINK-5508,1 55639U 23021M   23310.04526492  .00002509  00000-0  21788-3 0  9992,2 55639  70.0003 179.3299 0002732 269.0585  91.0261 14.98353775 40475,6950.119,96.105,573.883,570.086,0.0
55639.0,STARLINK-5508,PAYLOAD,2023-11-06 09:05:51,14.98341914,0.0002689,70.0005,178.489,276.4861,83.5992,0.00013598,1.53e-05,0.0,0 STARLINK-5508,1 55639U 23021M   23310.37907159  .00001530  00000-0  13598-3 0  9994,2 55639  70.0005 178.4890 0002689 276.4861  83.5992 14.98341914 40529,6950.156,96.106,573.89,570.152,0.0
55639.0,STARLINK-5508,PAYLOAD,2023-11-06 18:42:41,14.98318752,0.0003096,70.0002,177.4793,273.874,86.2065,-8.9044e-05,-1.155e-05,0.0,0 STARLINK-5508,1 55639U 23021M   23310.77965053 -.00001155  00000-0 -89044-4 0  9990,2 55639  70.0002 177.4793 0003096 273.8740  86.2065 14.98318752 40588,6950.228,96.108,574.244,569.941,0.0
55639.0,STARLINK-5508,PAYLOAD,2023-11-06 21:54:57,14.9832652,0.0002629,70.0008,177.1422,272.9962,87.0896,-4.6814e-05,-6.51e-06,0.0,0 STARLINK-5508,1 55639U 23021M   23310.91316546 -.00000651  00000-0 -46814-4 0  9991,2 55639  70.0008 177.1422 0002629 272.9962  87.0896 14.98326520 40906,6950.204,96.107,573.896,570.241,0.0
55639.0,STARLINK-5508,PAYLOAD,2023-11-07 02:43:21,14.98331669,0.0002952,70.0002,176.6378,274.9878,85.0944,-2.1092e-05,-3.45e-06,0.0,0 STARLINK-5508,1 55639U 23021M   23311.11344111 -.00000345  00000-0 -21092-4 0  9994,2 55639  70.0002 176.6378 0002952 274.9878  85.0944 14.98331669 40633,6950.188,96.107,574.104,570.001,0.0
55639.0,STARLINK-5508,PAYLOAD,2023-11-07 09:07:54,14.98318303,0.0002902,70.0002,175.9645,272.1402,87.9424,-0.00019408,-2.407e-05,0.0,0 STARLINK-5508,1 55639U 23021M   23311.38049441 -.00002407  00000-0 -19408-3 0  9999,2 55639  70.0002 175.9645 0002902 272.1402  87.9424 14.98318303 40678,6950.229,96.108,574.111,570.077,0.0
55639.0,STARLINK-5508,PAYLOAD,2023-11-08 01:09:15,14.98323776,0.0002793,69.9998,174.2814,271.5808,88.5031,-0.00022134,-2.732e-05,0.0,0 STARLINK-5508,1 55639U 23021M   23312.04809517 -.00002732  00000-0 -22134-3 0  9992,2 55639  69.9998 174.2814 0002793 271.5808  88.5031 14.98323776 40772,6950.212,96.107,574.018,570.136,0.0
55639.0,STARLINK-5508,PAYLOAD,2023-11-08 21:58:59,14.98320121,0.0002791,70.0002,172.0925,274.0261,86.0579,8.5763e-05,9.3e-06,0.0,0 STARLINK-5508,1 55639U 23021M   23312.91597193  .00000930  00000-0  85763-4 0  9996,2 55639  70.0002 172.0925 0002791 274.0261  86.0579 14.98320121 41209,6950.223,96.108,574.028,570.149,0.0
55639.0,STARLINK-5508,PAYLOAD,2023-11-09 01:11:18,14.98286513,0.0003298,69.9998,171.7573,287.8836,72.1963,-0.00032045,-3.91e-05,0.0,0 STARLINK-5508,1 55639U 23021M   23313.04952270 -.00003910  00000-0 -32045-3 0  9999,2 55639  69.9998 171.7573 0003298 287.8836  72.1963 14.98286513 40925,6950.327,96.11,574.485,569.9,0.0
55639.0,STARLINK-5508,PAYLOAD,2023-11-09 14:00:16,14.9840506,0.0002963,70.0028,170.4206,287.8097,72.2739,9.1321e-05,9.99e-06,0.0,0 STARLINK-5508,1 55639U 23021M   23313.58352126  .00000999  00000-0  91321-4 0  9997,2 55639  70.0028 170.4206 0002963 287.8097  72.2739 14.98405060 41303,6949.961,96.102,573.885,569.767,0.0
55639.0,STARLINK-5508,PAYLOAD,2023-11-09 15:36:32,14.98197242,0.0003194,70.0034,170.2526,290.1373,69.9442,0.0016343,0.00019395,0.0,0 STARLINK-5508,1 55639U 23021M   23313.65037074  .00019395  00000-0  16343-2 0  9996,2 55639  70.0034 170.2526 0003194 290.1373  69.9442 14.98197242 41016,6950.603,96.116,574.688,570.248,0.0
55639.0,STARLINK-5508,PAYLOAD,2023-11-09 20:24:52,14.98331742,0.0002632,69.9996,169.7359,271.6294,88.4564,0.00014379,1.623e-05,0.0,0 STARLINK-5508,1 55639U 23021M   23313.85060608  .00001623  00000-0  14379-3 0  9990,2 55639  69.9996 169.7359 0002632 271.6294  88.4564 14.98331742 41048,6950.188,96.107,573.882,570.223,0.0
55639.0,STARLINK-5508,PAYLOAD,2023-11-09 22:01:01,14.98350946,0.0002103,69.9997,169.5674,269.7697,90.3222,-0.00070047,-8.445e-05,0.0,0 STARLINK-5508,1 55639U 23021M   23313.91737581 -.00008445  00000-0 -70047-3 0  9993,2 55639  69.9997 169.5674 0002103 269.7697  90.3222 14.98350946 41359,6950.128,96.106,573.455,570.532,0.0
55639.0,STARLINK-5508,PAYLOAD,2023-11-09 23:37:07,14.98377983,0.0002075,69.9999,169.3999,268.8706,91.2215,-0.0006865,-8.284e-05,0.0,0 STARLINK-5508,1 55639U 23021M   23313.98411772 -.00008284  00000-0 -68650-3 0  9999,2 55639  69.9999 169.3999 0002075 268.8706  91.2215 14.98377983 41068,6950.045,96.104,573.352,570.467,0.0
55639.0,STARLINK-5508,PAYLOAD,2023-11-10 07:37:48,14.98337776,0.0003016,69.9998,168.5572,276.2303,83.8512,-4.5863e-06,-1.48e-06,0.0,0 STARLINK-5508,1 55639U 23021M   23314.31792560 -.00000148  00000-0 -45863-5 0  9998,2 55639  69.9998 168.5572 0003016 276.2303  83.8512 14.98337776 41116,6950.169,96.107,574.13,569.938,0.0
55639.0,STARLINK-5508,PAYLOAD,2023-11-10 20:26:53,14.98330239,0.0002709,69.9999,167.2128,268.4906,91.5943,-1.5957e-05,-2.83e-06,0.0,0 STARLINK-5508,1 55639U 23021M   23314.85201197 -.00000283  00000-0 -15957-4 0  9998,2 55639  69.9999 167.2128 0002709 268.4906  91.5943 14.98330239 41199,6950.192,96.107,573.94,570.174,0.0
55639.0,STARLINK-5508,PAYLOAD,2023-11-10 23:39:10,14.98328415,0.0002808,69.9998,166.876,271.2885,88.7952,-5.3709e-05,-7.34e-06,0.0,0 STARLINK-5508,1 55639U 23021M   23314.98553374 -.00000734  00000-0 -53709-4 0  9997,2 55639  69.9998 166.8760 0002808 271.2885  88.7952 14.98328415 41510,6950.198,96.107,574.014,570.111,0.0
55639.0,STARLINK-5508,PAYLOAD,2023-11-11 22:05:02,14.98332379,0.0002986,69.9999,164.5198,273.6178,86.464,-6.6989e-05,-8.92e-06,0.0,0 STARLINK-5508,1 55639U 23021M   23315.92017027 -.00000892  00000-0 -66989-4 0  9991,2 55639  69.9999 164.5198 0002986 273.6178  86.4640 14.98332379 41657,6950.186,96.107,574.126,569.975,0.0
55639.0,STARLINK-5508,PAYLOAD,2023-11-11 23:41:10,14.98331907,0.0002926,69.9998,164.3514,272.0713,88.0111,-6.1704e-05,-8.29e-06,0.0,0 STARLINK-5508,1 55639U 23021M   23315.98693032 -.00000829  00000-0 -61704-4 0  9993,2 55639  69.9998 164.3514 0002926 272.0713  88.0111 14.98331907 41363,6950.187,96.107,574.086,570.018,0.0
55639.0,STARLINK-5508,PAYLOAD,2023-11-12 07:41:50,14.98347641,0.0002868,69.9997,163.5098,272.4833,87.5997,-0.00028811,-3.53e-05,0.0,0 STARLINK-5508,1 55639U 23021M   23316.32072465 -.00003530  00000-0 -28811-3 0  9996,2 55639  69.9997 163.5098 0002868 272.4833  87.5997 14.98347641 41416,6950.138,96.106,573.997,570.01,0.0
